[{"OBJECT_NAME":"DONGPO 10","OBJECT_ID":"2022-167H","EPOCH":"2026-03-09T22:44:56.137344","MEAN_MOTION":15.322785,"ECCENTRICITY":0.00061655,"INCLINATION":97.685,"RA_OF_ASC_NODE":235.0962,"ARG_OF_PERICENTER":106.9526,"MEAN_ANOMALY":253.2392,"EPHEMERIS_TYPE":0,"CLASSIFICATION_TYPE":"U","NORAD_CAT_ID":54689,"ELEMENT_SET_NO":999,"REV_AT_EPOCH":18015,"BSTAR":0.00049390523,"MEAN_MOTION_DOT":0.00015333,"MEAN_MOTION_DDOT":0},{"OBJECT_NAME":"STARLINK-35320","OBJECT_ID":"2025-221M","EPOCH":"2026-03-09T18:48:58.534848","MEAN_MOTION":15.30207074,"ECCENTRICITY":0.00013746,"INCLINATION":53.1599,"RA_OF_ASC_NODE":88.2034,"ARG_OF_PERICENTER":82.3549,"MEAN_ANOMALY":277.7608,"EPHEMERIS_TYPE":0,"CLASSIFICATION_TYPE":"U","NORAD_CAT_ID":65834,"ELEMENT_SET_NO":999,"REV_AT_EPOCH":2474,"BSTAR":0.00076148063,"MEAN_MOTION_DOT":0.00022266,"MEAN_MOTION_DDOT":0}]
